[{"OBJECT_NAME":"ONEWEB-0319","OBJECT_ID":"2021-075AG","EPOCH":"2026-01-20T07:48:58.964544","MEAN_MOTION":13.17648917,"ECCENTRICITY":0.00023763,"INCLINATION":87.9081,"RA_OF_ASC_NODE":35.2565,"ARG_OF_PERICENTER":87.1367,"MEAN_ANOMALY":273.0037,"EPHEMERIS_TYPE":0,"CLASSIFICATION_TYPE":"U","NORAD_CAT_ID":49105,"ELEMENT_SET_NO":999,"REV_AT_EPOCH":21413,"BSTAR":0.00031062656,"MEAN_MOTION_DOT":1.33e-6,"MEAN_MOTION_DDOT":0},{"OBJECT_NAME":"ONEWEB-0323","OBJECT_ID":"2021-075AH","EPOCH":"2026-01-19T23:43:01.573824","MEAN_MOTION":13.12443821,"ECCENTRICITY":0.00024403,"INCLINATION":87.8932,"RA_OF_ASC_NODE":20.0686,"ARG_OF_PERICENTER":92.0456,"MEAN_ANOMALY":268.0952,"EPHEMERIS_TYPE":0,"CLASSIFICATION_TYPE":"U","NORAD_CAT_ID":49106,"ELEMENT_SET_NO":999,"REV_AT_EPOCH":21511,"BSTAR":0.0010633644,"MEAN_MOTION_DOT":3.95e-6,"MEAN_MOTION_DDOT":0},{"OBJECT_NAME":"ONEWEB-0329","OBJECT_ID":"2021-075AJ","EPOCH":"2026-01-20T00:43:45.123168","MEAN_MOTION":13.17650087,"ECCENTRICITY":0.0001918,"INCLINATION":87.9082,"RA_OF_ASC_NODE":35.3163,"ARG_OF_PERICENTER":95.2956,"MEAN_ANOMALY":264.8394,"EPHEMERIS_TYPE":0,"CLASSIFICATION_TYPE":"U","NORAD_CAT_ID":49107,"ELEMENT_SET_NO":999,"REV_AT_EPOCH":21407,"BSTAR":4.2154712e-5,"MEAN_MOTION_DOT":2.9e-7,"MEAN_MOTION_DDOT":0},{"OBJECT_NAME":"ONEWEB-0330","OBJECT_ID":"2021-075AK","EPOCH":"2026-01-20T08:02:21.148800","MEAN_MOTION":13.17649744,"ECCENTRICITY":0.00017895,"INCLINATION":87.9085,"RA_OF_ASC_NODE":35.2626,"ARG_OF_PERICENTER":99.5231,"MEAN_ANOMALY":260.6103,"EPHEMERIS_TYPE":0,"CLASSIFICATION_TYPE":"U","NORAD_CAT_ID":49108,"ELEMENT_SET_NO":999,"REV_AT_EPOCH":21415,"BSTAR":6.4791212e-5,"MEAN_MOTION_DOT":3.8e-7,"MEAN_MOTION_DDOT":0},{"OBJECT_NAME":"ONEWEB-0292","OBJECT_ID":"2021-083A","EPOCH":"2026-01-20T07:18:59.150592","MEAN_MOTION":13.13469482,"ECCENTRICITY":0.00019389,"INCLINATION":87.8998,"RA_OF_ASC_NODE":349.6445,"ARG_OF_PERICENTER":82.2334,"MEAN_ANOMALY":277.9015,"EPHEMERIS_TYPE":0,"CLASSIFICATION_TYPE":"U","NORAD_CAT_ID":49186,"ELEMENT_SET_NO":999,"REV_AT_EPOCH":21151,"BSTAR":-9.7108005e-5,"MEAN_MOTION_DOT":-2.3e-7,"MEAN_MOTION_DDOT":0},{"OBJECT_NAME":"ONEWEB-0303","OBJECT_ID":"2021-083B","EPOCH":"2026-01-20T04:38:04.634880","MEAN_MOTION":13.18685897,"ECCENTRICITY":0.00019753,"INCLINATION":87.9193,"RA_OF_ASC_NODE":4.8386,"ARG_OF_PERICENTER":85.8841,"MEAN_ANOMALY":274.2517,"EPHEMERIS_TYPE":0,"CLASSIFICATION_TYPE":"U","NORAD_CAT_ID":49187,"ELEMENT_SET_NO":999,"REV_AT_EPOCH":21047,"BSTAR":-0.00020183628,"MEAN_MOTION_DOT":-6.7e-7,"MEAN_MOTION_DDOT":0},{"OBJECT_NAME":"ONEWEB-0306","OBJECT_ID":"2021-083C","EPOCH":"2026-01-20T04:23:49.459776","MEAN_MOTION":13.18686957,"ECCENTRICITY":0.00015456,"INCLINATION":87.9191,"RA_OF_ASC_NODE":4.8245,"ARG_OF_PERICENTER":86.2276,"MEAN_ANOMALY":273.9033,"EPHEMERIS_TYPE":0,"CLASSIFICATION_TYPE":"U","NORAD_CAT_ID":49188,"ELEMENT_SET_NO":999,"REV_AT_EPOCH":21051,"BSTAR":-4.0377925e-5,"MEAN_MOTION_DOT":-3.0e-8,"MEAN_MOTION_DDOT":0},{"OBJECT_NAME":"ONEWEB-0307","OBJECT_ID":"2021-083D","EPOCH":"2026-01-20T07:10:27.202080","MEAN_MOTION":13.13468533,"ECCENTRICITY":0.00017872,"INCLINATION":87.8995,"RA_OF_ASC_NODE":349.6357,"ARG_OF_PERICENTER":82.9898,"MEAN_ANOMALY":277.1434,"EPHEMERIS_TYPE":0,"CLASSIFICATION_TYPE":"U","NORAD_CAT_ID":49189,"ELEMENT_SET_NO":999,"REV_AT_EPOCH":21151,"BSTAR":0.00024438925,"MEAN_MOTION_DOT":1.02e-6,"MEAN_MOTION_DDOT":0},{"OBJECT_NAME":"ONEWEB-0320","OBJECT_ID":"2021-083E","EPOCH":"2026-01-20T04:34:31.194048","MEAN_MOTION":13.18686132,"ECCENTRICITY":0.0001786,"INCLINATION":87.9184,"RA_OF_ASC_NODE":4.85,"ARG_OF_PERICENTER":86.4718,"MEAN_ANOMALY":273.6618,"EPHEMERIS_TYPE":0,"CLASSIFICATION_TYPE":"U","NORAD_CAT_ID":49190,"ELEMENT_SET_NO":999,"REV_AT_EPOCH":21047,"BSTAR":0.00017273651,"MEAN_MOTION_DOT":8.1e-7,"MEAN_MOTION_DDOT":0},{"OBJECT_NAME":"ONEWEB-0321","OBJECT_ID":"2021-083F","EPOCH":"2026-01-20T05:57:00.669024","MEAN_MOTION":13.20772545,"ECCENTRICITY":0.00013643,"INCLINATION":87.9234,"RA_OF_ASC_NODE":303.9505,"ARG_OF_PERICENTER":74.8159,"MEAN_ANOMALY":285.3126,"EPHEMERIS_TYPE":0,"CLASSIFICATION_TYPE":"U","NORAD_CAT_ID":49191,"ELEMENT_SET_NO":999,"REV_AT_EPOCH":21730,"BSTAR":0.00014348569,"MEAN_MOTION_DOT":7.1e-7,"MEAN_MOTION_DDOT":0},{"OBJECT_NAME":"ONEWEB-0322","OBJECT_ID":"2021-083G","EPOCH":"2026-01-20T07:04:21.773280","MEAN_MOTION":13.13470042,"ECCENTRICITY":0.00013772,"INCLINATION":87.9001,"RA_OF_ASC_NODE":349.6402,"ARG_OF_PERICENTER":70.8153,"MEAN_ANOMALY":289.3125,"EPHEMERIS_TYPE":0,"CLASSIFICATION_TYPE":"U","NORAD_CAT_ID":49192,"ELEMENT_SET_NO":999,"REV_AT_EPOCH":21150,"BSTAR":0.00060083946,"MEAN_MOTION_DOT":2.32e-6,"MEAN_MOTION_DDOT":0},{"OBJECT_NAME":"ONEWEB-0324","OBJECT_ID":"2021-083H","EPOCH":"2026-01-20T04:14:19.383936","MEAN_MOTION":13.18685778,"ECCENTRICITY":0.0001771,"INCLINATION":87.9191,"RA_OF_ASC_NODE":4.8322,"ARG_OF_PERICENTER":90.3908,"MEAN_ANOMALY":269.7427,"EPHEMERIS_TYPE":0,"CLASSIFICATION_TYPE":"U","NORAD_CAT_ID":49193,"ELEMENT_SET_NO":999,"REV_AT_EPOCH":21049,"BSTAR":-0.0001446551,"MEAN_MOTION_DOT":-4.4e-7,"MEAN_MOTION_DDOT":0},{"OBJECT_NAME":"ONEWEB-0325","OBJECT_ID":"2021-083J","EPOCH":"2026-01-20T04:19:03.457632","MEAN_MOTION":13.18686609,"ECCENTRICITY":0.00017541,"INCLINATION":87.9189,"RA_OF_ASC_NODE":4.8511,"ARG_OF_PERICENTER":83.2429,"MEAN_ANOMALY":276.8902,"EPHEMERIS_TYPE":0,"CLASSIFICATION_TYPE":"U","NORAD_CAT_ID":49194,"ELEMENT_SET_NO":999,"REV_AT_EPOCH":21050,"BSTAR":-0.00012676127,"MEAN_MOTION_DOT":-3.7e-7,"MEAN_MOTION_DDOT":0},{"OBJECT_NAME":"ONEWEB-0326","OBJECT_ID":"2021-083K","EPOCH":"2026-01-20T04:40:39.549216","MEAN_MOTION":13.18682503,"ECCENTRICITY":0.00020089,"INCLINATION":87.9189,"RA_OF_ASC_NODE":4.835,"ARG_OF_PERICENTER":84.4428,"MEAN_ANOMALY":275.6933,"EPHEMERIS_TYPE":0,"CLASSIFICATION_TYPE":"U","NORAD_CAT_ID":49195,"ELEMENT_SET_NO":999,"REV_AT_EPOCH":21049,"BSTAR":0.0015328411,"MEAN_MOTION_DOT":6.17e-6,"MEAN_MOTION_DDOT":0},{"OBJECT_NAME":"ONEWEB-0327","OBJECT_ID":"2021-083L","EPOCH":"2026-01-20T04:40:15.729600","MEAN_MOTION":13.18686567,"ECCENTRICITY":0.0002087,"INCLINATION":87.9182,"RA_OF_ASC_NODE":4.8512,"ARG_OF_PERICENTER":79.638,"MEAN_ANOMALY":280.4987,"EPHEMERIS_TYPE":0,"CLASSIFICATION_TYPE":"U","NORAD_CAT_ID":49196,"ELEMENT_SET_NO":999,"REV_AT_EPOCH":21051,"BSTAR":-6.686118e-6,"MEAN_MOTION_DOT":1.0e-7,"MEAN_MOTION_DDOT":0},{"OBJECT_NAME":"ONEWEB-0328","OBJECT_ID":"2021-083M","EPOCH":"2026-01-20T06:49:44.554080","MEAN_MOTION":13.13469883,"ECCENTRICITY":0.00017633,"INCLINATION":87.9012,"RA_OF_ASC_NODE":349.595,"ARG_OF_PERICENTER":87.3128,"MEAN_ANOMALY":272.8203,"EPHEMERIS_TYPE":0,"CLASSIFICATION_TYPE":"U","NORAD_CAT_ID":49197,"ELEMENT_SET_NO":999,"REV_AT_EPOCH":21148,"BSTAR":0.00092811788,"MEAN_MOTION_DOT":3.52e-6,"MEAN_MOTION_DDOT":0},{"OBJECT_NAME":"ONEWEB-0331","OBJECT_ID":"2021-083N","EPOCH":"2026-01-19T23:03:09.690048","MEAN_MOTION":13.18686099,"ECCENTRICITY":0.00021223,"INCLINATION":87.9191,"RA_OF_ASC_NODE":4.8745,"ARG_OF_PERICENTER":89.4614,"MEAN_ANOMALY":270.6761,"EPHEMERIS_TYPE":0,"CLASSIFICATION_TYPE":"U","NORAD_CAT_ID":49198,"ELEMENT_SET_NO":999,"REV_AT_EPOCH":21047,"BSTAR":-0.00025244529,"MEAN_MOTION_DOT":-8.7e-7,"MEAN_MOTION_DDOT":0}]
