ONEWEB-0319             
1 49105U 21075AG  26020.32568246  .00000133  00000+0  31063-3 0  9992
2 49105  87.9081  35.2565 0002376  87.1367 273.0037 13.17648917214130
ONEWEB-0323             
1 49106U 21075AH  26019.98821266  .00000395  00000+0  10634-2 0  9997
2 49106  87.8932  20.0686 0002440  92.0456 268.0952 13.12443821215118
ONEWEB-0329             
1 49107U 21075AJ  26020.03038337  .00000029  00000+0  42155-4 0  9994
2 49107  87.9082  35.3163 0001918  95.2956 264.8394 13.17650087214071
ONEWEB-0330             
1 49108U 21075AK  26020.33496700  .00000038  00000+0  64791-4 0  9990
2 49108  87.9085  35.2626 0001789  99.5231 260.6103 13.17649744214156
ONEWEB-0292             
1 49186U 21083A   26020.30485128 -.00000023  00000+0 -97108-4 0  9998
2 49186  87.8998 349.6445 0001938  82.2334 277.9015 13.13469482211519
ONEWEB-0303             
1 49187U 21083B   26020.19310920 -.00000067  00000+0 -20184-3 0  9990
2 49187  87.9193   4.8386 0001975  85.8841 274.2517 13.18685897210471
ONEWEB-0306             
1 49188U 21083C   26020.18321134 -.00000003  00000+0 -40378-4 0  9997
2 49188  87.9191   4.8245 0001545  86.2276 273.9033 13.18686957210516
ONEWEB-0307             
1 49189U 21083D   26020.29892595  .00000102  00000+0  24439-3 0  9991
2 49189  87.8995 349.6357 0001787  82.9898 277.1434 13.13468533211518
ONEWEB-0320             
1 49190U 21083E   26020.19063882  .00000081  00000+0  17274-3 0  9996
2 49190  87.9184   4.8500 0001786  86.4718 273.6618 13.18686132210471
ONEWEB-0321             
1 49191U 21083F   26020.24792441  .00000071  00000+0  14349-3 0  9992
2 49191  87.9234 303.9505 0001364  74.8159 285.3126 13.20772545217308
ONEWEB-0322             
1 49192U 21083G   26020.29469645  .00000232  00000+0  60084-3 0  9991
2 49192  87.9001 349.6402 0001377  70.8153 289.3125 13.13470042211506
ONEWEB-0324             
1 49193U 21083H   26020.17661324 -.00000044  00000+0 -14466-3 0  9993
2 49193  87.9191   4.8322 0001771  90.3908 269.7427 13.18685778210494
ONEWEB-0325             
1 49194U 21083J   26020.17990113 -.00000037  00000+0 -12676-3 0  9998
2 49194  87.9189   4.8511 0001754  83.2429 276.8902 13.18686609210505
ONEWEB-0326             
1 49195U 21083K   26020.19490219  .00000617  00000+0  15328-2 0  9991
2 49195  87.9189   4.8350 0002008  84.4428 275.6933 13.18682503210490
ONEWEB-0327             
1 49196U 21083L   26020.19462650  .00000010  00000+0 -66861-5 0  9999
2 49196  87.9182   4.8512 0002087  79.6380 280.4987 13.18686567210514
ONEWEB-0328             
1 49197U 21083M   26020.28454345  .00000352  00000+0  92812-3 0  9993
2 49197  87.9012 349.5950 0001763  87.3128 272.8203 13.13469883211486
ONEWEB-0331             
1 49198U 21083N   26019.96052882 -.00000087  00000+0 -25245-3 0  9990
2 49198  87.9191   4.8745 0002122  89.4614 270.6761 13.18686099210479
